#aV2008  4  6  0  0   .00000000      96 DD+AD WGS84 FIT  NGA
## 1474       .00000000   900.00000000 54562  .0000000000000
+   31     2  3  4  5  6  7  8  9 10 11 12 13 14 15 16 17 18
+         19 20 21 22 23 24 25 26 27 28 29 30 31 32  0  0  0
+          0  0  0  0  0  0  0  0  0  0  0  0  0  0  0  0  0
+          0  0  0  0  0  0  0  0  0  0  0  0  0  0  0  0  0
+          0  0  0  0  0  0  0  0  0  0  0  0  0  0  0  0  0
++         0  0  0  0  0  0  0  0  0  0  0  0  0  0  0  0  0
++         0  0  0  0  0  0  0  0  0  0  0  0  0  0  0  0  0
++         0  0  0  0  0  0  0  0  0  0  0  0  0  0  0  0  0
++         0  0  0  0  0  0  0  0  0  0  0  0  0  0  0  0  0
++         0  0  0  0  0  0  0  0  0  0  0  0  0  0  0  0  0
%c cc cc ccc ccc cccc cccc cccc cccc ccccc ccccc ccccc ccccc
%c cc cc ccc ccc cccc cccc cccc cccc ccccc ccccc ccccc ccccc
%f  0.0000000  0.000000000  0.00000000000  0.000000000000000
%f  0.0000000  0.000000000  0.00000000000  0.000000000000000
%i    0    0    0    0      0      0      0      0         0
%i    0    0    0    0      0      0      0      0         0
/*      NGA, ST. LOUIS,MO.                                  
/*   EPHEMERIS COMPUTED FROM  3 DAYS OF DATA                
/* CCCCCCCCCCCCCCCCCCCCCCCCCCCCCCCCCCCCCCCCCCCCCCCCCCCCCCCCC
/* CCCCCCCCCCCCCCCCCCCCCCCCCCCCCCCCCCCCCCCCCCCCCCCCCCCCCCCCC
*  2008  4  6  1 30   .00000000                                                 
P  2  -3206.506622  15227.122503  21365.942320    188.195866                    
V  2 -26250.026708  -8473.391995   1741.837211       .032002                    
P  3   6339.898128 -21940.915718 -13515.692233    210.366069                    
V  3  13830.833932 -10356.740662  24094.497562       .051995                    
P  4 -16092.974070   9092.338243  19103.215091    -40.452234                    
V  4 -22612.331263  -9278.311999 -14199.559290      -.076224                    
P  5  15465.011108  16408.147169  13883.855750    742.247540                    
V  5   2712.260151  18049.196549 -23753.915394       .098496                    
P  6  20510.743510 -16708.922555   2887.166188     90.418170                    
V  6    -24.247469   4978.106741  30830.198189       .128303                    
P  7 -25505.636446  -7369.664019  -1585.471684    -80.002352                    
V  7  -1010.371111  -3225.360150  31645.866632       .129461                    
P  8 -22652.604356   1314.205824 -14266.606300   -147.802517                    
V  8 -16043.300833  -7692.419088  24460.652687      -.014681                    
P  9  18308.827621  14752.636688 -13135.288188    118.594388                    
V  9 -15450.326696  -2735.482465 -25684.022112       .017366                    
P 10    497.769957  25715.619910   5744.428484      -.446698                    
V 10  -4186.822576  -6911.701104  30906.007185      -.002743                    
P 11 -21675.422586 -11587.832011 -10612.129131     26.505943                    
V 11  13729.754790  -2143.753546 -25748.911879      -.002079                    
P 12  12224.369142  20788.199120  11322.222455   -358.783327                    
V 12    590.261881  14365.960735 -27154.793912      -.002943                    
P 13 -20173.961188   2097.007319  17018.483077    249.143337                    
V 13  16227.464402 -14556.410298  20918.041284       .019425                    
P 14  21562.859243 -14992.501342  -3514.211333   -280.378961                    
V 14  -2259.665066   4448.014710 -32029.851322       .039603                    
P 15   1633.859458  17433.197856 -19946.604871    -93.746806                    
V 15 -19611.428088  16167.219417  12514.215837      -.047005                    
P 16   2897.274508 -24174.572106  10450.612932    129.435467                    
V 16   4853.947378  12546.022687  28066.404165      -.011901                    
P 17 -21466.946584  15005.768574  -3831.647708     40.177522                    
V 17   1807.935074  -5447.363297 -31342.692672      -.004459                    
P 18  15829.009416   4445.844559 -20749.423114   -189.906842                    
V 18   3655.869174  26478.725556   8042.047872       .034492                    
P 19  -1373.116502 -16936.845746 -20283.520661     26.452164                    
V 19  21300.587300 -14958.332304  11173.762530       .010911                    
P 20 -13477.882551 -19047.409508  12612.075606    117.094972                    
V 20   -925.936051 -16400.592188 -25472.001255      -.008201                    
P 21  25676.139969   4195.156600  -6579.380860     67.755067                    
V 21   6952.212111   5646.867775  29342.792590      -.009900                    
P 22  12732.094910 -11743.832029 -19971.066748    210.321853                    
V 22   5257.199443  25249.181926 -11454.084255       .003662                    
P 23 -11747.736668  -9492.338319  21794.996652    345.802239                    
V 23  20784.278449 -18440.387125   2932.640938       .024667                    
P 24  22163.969184  13180.559627   5874.527609     84.041754                    
V 24  -7956.670181    260.796578  30581.775196       .030157                    
P 25 -24214.321675  -9424.943145   5354.918927    -55.533198                    
V 25   6829.422671  -1232.561817  30975.679714      -.314515                    
P 26  -2193.584442  18132.487439 -19541.850670    224.945455                    
V 26 -19258.411343  14221.580695  16284.491164       .088798                    
P 27 -25927.725606  -4485.604588  -3474.685680    179.369958                    
V 27  -4396.411720  -3759.428234  31430.963603       .025794                    
P 28 -13132.597901   8982.018259 -20828.780340    -17.444071                    
V 28  -5638.118829 -26823.852795  -8199.593112      -.004695                    
P 29  18700.582214   1475.937763  18911.745072    -45.205561                    
V 29 -17208.476810  16467.754364  15856.123036       .014796                    
P 30  16010.172103  10236.747030  18263.496563     70.825713                    
V 30   4009.968163  23605.708948 -16347.109399       .016721                    
P 31  13855.767820 -10268.439029  20437.097133    -15.400942                    
V 31  23879.833579   8807.062828 -11782.372916      -.014200                    
P 32   2527.744057 -25189.304627  -7914.732403    264.041363                    
V 32   3527.731913  10236.551251 -29666.762538       .069817                    
EOF
